satname,norad_id,inclination_deg,eccentricity,mean_motion_rev_per_day,perigee_km,apogee_km,l1,l2
STARLINK-1008,44714,53.1517,0.0002925,15.4814533,420.16270869532127,424.14087763932366,1 44714U 19074B   26153.27939810  .00068985  00000+0  12887-2 0  9990,2 44714  53.1517 140.0053 0002925  72.1609 287.9719 15.48145330361906
STARLINK-1012,44718,53.1559,0.0002831,15.48510206,419.1586556033708,423.00837425892587,1 44718U 19074F   26153.92379532  .00071869  00000+0  13248-2 0  9992,2 44718  53.1559 137.2231 0002831  66.3506 293.7800 15.48510206361992
STARLINK-1017,44723,53.0451,0.0005305,15.30885666,469.53394090040365,476.8031760979711,1 44723U 19074L   26153.26135430  .00022909  00000+0  76655-3 0  9995,2 44723  53.0451 139.1013 0005305  20.1882 339.9327 15.30885666361893
STARLINK-1020,44725,53.1577,0.0004373,15.53521255,403.4876660180071,409.4214698033011,1 44725U 19074N   26153.31911354  .00091476  00000+0  14053-2 0  9998,2 44725  53.1577 164.3708 0004373  45.5117 314.6250 15.53521255361545
STARLINK-1036,44741,53.0413,0.0003078,15.68517997,361.06500170613253,365.21493180686866,1 44741U 19074AE  26153.24846015  .00055954  00000+0  48674-3 0  9997,2 44741  53.0413 134.4892 0003078 358.3800   1.7205 15.68517997361951
STARLINK-1039,44744,53.0596,0.0004078,15.28140422,478.5741962632919,484.1688113990167,1 44744U 19074AH  26153.28084862  .00036314  00000+0  13122-2 0  9996,2 44744  53.0596 184.2836 0004078  24.7938 335.3256 15.28140422361261
STARLINK-1042,44747,53.0434,0.0003377,15.53807911,403.3292254746939,407.91097502020057,1 44747U 19074AL  26152.11496053  .00029699  00000+0  46000-3 0  9999,2 44747  53.0434  53.2549 0003377  77.2747 282.8640 15.53807911363023
STARLINK-1043,44748,53.0479,0.0001142,15.62040917,380.99049031260074,382.5344513517384,1 44748U 19074AM  26153.25982998  .00041708  00000+0  47186-3 0  9995,2 44748  53.0479 144.4169 0001142  77.2090 282.9051 15.62040917361821
STARLINK-1046,44751,53.046,0.0007328,15.54256611,399.34425029275917,409.28461110959506,1 44751U 19074AQ  26153.32939529  .00043561  00000+0  65879-3 0  9997,2 44751  53.0460 165.3583 0007328  37.5940 322.5581 15.54256611361530
STARLINK-1047,44752,53.0687,0.0003762,15.34426062,460.05228458952115,465.19927450485375,1 44752U 19074AR  26153.15648461  .00011280  00000+0  34416-3 0  9997,2 44752  53.0687 110.8567 0003762  96.1032 264.0399 15.34426062362300
STARLINK-1048,44753,53.0443,0.0007231,15.66672045,363.5558140718258,373.3127054276765,1 44753U 19074AS  26153.17102445  .00055332  00000+0  51835-3 0  9997,2 44753  53.0443 116.7980 0007231  37.7653 322.3868 15.66672045362195
STARLINK-1063,44768,53.155,0.0002535,15.48228099,420.185614820688,423.6332383589679,1 44768U 19074BH  26153.93754102  .00066831  00000+0  12455-2 0  9990,2 44768  53.1550 177.8862 0002535  34.6696 325.4478 15.48228099361447
STARLINK-1067,44771,53.042,0.0006838,15.73686877,343.7708377128256,352.9700092651892,1 44771U 19074BL  26153.25684519  .00080479  00000+0  55980-3 0  9998,2 44771  53.0420 148.5209 0006838   8.5172 351.5961 15.73686877361767
STARLINK-1068,44772,53.0416,0.0002327,15.74514354,344.4487888948943,347.5782085369965,1 44772U 19074BM  26153.89879447  .00075046  00000+0  50491-3 0  9991,2 44772  53.0416 119.0075 0002327  96.0312 264.0972 15.74514354362227
STARLINK-1114,44927,53.0415,0.0003198,15.64770039,371.74090340974635,376.0595064060044,1 44927U 20001P   26153.88321052  .00047987  00000+0  48665-3 0  9991,2 44927  53.0415 275.7620 0003198 344.8759  15.2159 15.64770039353372
STARLINK-1123,44930,53.1452,0.0004527,15.57234912,392.5972874758518,398.73028670848544,1 44930U 20001S   26153.96311365  .00088374  00000+0  11851-2 0  9991,2 44930  53.1452 302.0424 0004527 287.3859  72.6658 15.57234912353023
STARLINK-1094,44941,53.1532,0.00056,15.54027846,401.1814886089942,408.77857968723947,1 44941U 20001AD  26153.91082762  .00071859  00000+0  10878-2 0  9992,2 44941  53.1532 277.1841 0005600 319.9638  40.0960 15.54027846353375
STARLINK-1122,44949,53.155,0.0004647,15.53530862,403.273810670089,409.5793840774877,1 44949U 20001AM  26154.00002315  .00051917  00000+0  80442-3 0  9995,2 44949  53.1550 277.3533 0004647 317.5636 123.9945 15.53530862  5773
STARLINK-1080,44961,53.0457,0.0001725,15.66990182,366.35745780088837,368.6847098398057,1 44961U 20001AZ  26152.49593891  .00049182  00000+0  45630-3 0  9995,2 44961  53.0457 243.0545 0001725  30.2176 329.8938 15.66990182353715
STARLINK-1090,44968,53.1499,0.0003652,15.49852172,414.6764923188739,419.6397758848216,1 44968U 20001BG  26153.89591994  .00068562  00000+0  12065-2 0  9997,2 44968  53.1499 265.4482 0003652 328.6329  31.4462 15.49852172353537
STARLINK-1132,45044,53.1494,0.0003316,15.54835272,400.3830127717101,404.8800184512638,1 45044U 20006A   26153.63023990  .00090936  00000+0  13321-2 0  9992,2 45044  53.1494 207.9487 0003316   4.0925 356.0113 15.54835272350093
STARLINK-1131,45047,53.1562,0.0004283,15.51450777,409.5810209146648,415.3978715284984,1 45047U 20006D   26152.53862956  .00075630  00000+0  12556-2 0  9999,2 45047  53.1562 245.8957 0004283 336.5066  23.5747 15.51450777349466
STARLINK-1134,45048,53.0249,0.000831,15.57025416,390.641844903068,401.9009116277448,1 45048U 20006E   26154.00002315  .00164374  00000+0  21926-2 0  9994,2 45048  53.0249 189.0056 0008310  42.3260 210.7359 15.57025416  5888
STARLINK-1156,45054,53.1579,0.0003929,15.34502224,459.71177904175147,465.08707256514845,1 45054U 20006L   26152.54882207  .00059744  00000+0  17593-2 0  9993,2 45054  53.1579 250.6848 0003929 335.2884  24.7930 15.34502224349390
STARLINK-1166,45060,53.0448,0.0005276,15.58641828,388.01519670498965,395.1586093674732,1 45060U 20006S   26153.96458950  .00086208  00000+0  10968-2 0  9995,2 45060  53.0448 222.2345 0005276 350.6752   9.4161 15.58641828349903
STARLINK-1169,45061,53.1559,0.0004567,15.37685303,449.83625657662833,456.07577693813346,1 45061U 20006T   26152.53149616  .00053188  00000+0  14166-2 0  9999,2 45061  53.1559 249.4979 0004567 307.8732  52.1859 15.37685303349414
STARLINK-1171,45062,53.0384,0.0003052,15.73604423,346.5523908010855,350.65839435751514,1 45062U 20006U   26153.57951727  .00066496  00000+0  46617-3 0  9992,2 45062  53.0384 190.5831 0003052 348.0599  12.0346 15.73604423350310
STARLINK-1133,45064,53.1572,0.0004829,15.34464386,459.20852879466474,465.81522748116913,1 45064U 20006W   26152.51983436  .00039924  00000+0  11837-2 0  9990,2 45064  53.1572 227.5978 0004829 348.6775  11.4118 15.34464386349722
STARLINK-1167,45071,53.1562,0.0003573,15.36827526,453.05596269358375,457.9392779932805,1 45071U 20006AD  26152.46721666  .00048259  00000+0  13234-2 0  9991,2 45071  53.1562 227.0181 0003573 309.6026  50.4662 15.36827526349729
STARLINK-1168,45072,53.1562,0.0004193,15.34617246,459.1895218846503,464.92570908919697,1 45072U 20006AE  26152.43499378  .00048293  00000+0  14212-2 0  9996,2 45072  53.1562 228.1988 0004193 349.7485  10.3432 15.34617246349702
STARLINK-1172,45074,53.1535,0.0003858,15.37945295,449.55098526784695,454.82126259027063,1 45074U 20006AG  26153.33876924  .00053968  00000+0  14252-2 0  9993,2 45074  53.1535 222.3047 0003858 322.9679  37.1058 15.37945295349860
STARLINK-1153,45080,53.1563,0.0004657,15.36950205,451.9517218181463,458.31623040529576,1 45080U 20006AN  26153.68611536  .00044293  00000+0  12112-2 0  9998,2 45080  53.1563 221.2119 0004657 318.3183  41.7465 15.36950205349918
STARLINK-1151,45081,53.0477,0.0004436,15.77124318,335.6134326627134,341.5725154957172,1 45081U 20006AP  26153.30564117  .00087737  00000+0  52498-3 0  9992,2 45081  53.0477 180.7753 0004436 357.3481   2.7514 15.77124318350427
STARLINK-1185,45087,53.158,0.0005618,15.45342944,426.54556587011666,434.19560499310774,1 45087U 20006AV  26153.33768101  .00063162  00000+0  13008-2 0  9999,2 45087  53.1580 203.2979 0005618 357.9967   2.1017 15.45342944350130
STARLINK-1183,45088,53.1559,0.0004845,15.34475828,459.1635947863688,465.79215059800663,1 45088U 20006AW  26153.32571190  .00046738  00000+0  13821-2 0  9992,2 45088  53.1559 208.6411 0004845 358.3060   1.7925 15.34475828350057
STARLINK-1152,45096,53.0336,0.0004544,15.48139085,419.0800212954482,425.26014037050936,1 45096U 20006BE  26153.29409125  .00081211  00000+0  15132-2 0  9997,2 45096  53.0336 164.3680 0004544  47.2415 312.8974 15.48139085350651
STARLINK-1184,45098,53.0508,0.0004701,15.14003967,520.7593921419711,527.2487851935375,1 45098U 20006BG  26152.46976269  .00025132  00000+0  13796-2 0  9999,2 45098  53.0508 225.9036 0004701  18.9960 341.1207 15.14003967349719
STARLINK-1193,45100,53.0446,0.0004228,15.67306941,363.76049027178215,369.46385017012017,1 45100U 20006BJ  26153.28942216  .00056076  00000+0  51233-3 0  9999,2 45100  53.0446 176.9765 0004228 321.8203  38.2512 15.67306941350472
STARLINK-1143,45179,53.0344,0.0007348,15.87905628,303.24258545583234,313.06876116853255,1 45179U 20012B   26154.00002315  .00209562  00000+0  74214-3 0  9994,2 45179  53.0344 265.3504 0007348 337.9266 291.4911 15.87905628  5968
STARLINK-1202,45183,53.1557,0.0002336,15.34268782,461.49516415950256,464.69138694424055,1 45183U 20012F   26153.79123996  .00037576  00000+0  11223-2 0  9997,2 45183  53.1557   3.2129 0002336 169.0772 191.0282 15.34268782347993
STARLINK-1216,45185,53.1569,0.000273,15.34388726,460.8691905826563,464.6043076496735,1 45185U 20012H   26152.01279687  .00049833  00000+0  14767-2 0  9997,2 45185  53.1569  11.3958 0002730 145.7475 214.3704 15.34388726347660
STARLINK-1225,45187,53.1584,0.0001909,15.34552157,460.9452048300809,463.55686498180876,1 45187U 20012K   26153.76986959  .00053479  00000+0  15750-2 0  9993,2 45187  53.1584   3.6409 0001909 157.3499 202.7588 15.34552157347972
STARLINK-1230,45189,53.1581,0.0001839,15.34448229,461.30189305051044,463.8179013693043,1 45189U 20012M   26153.78058692  .00046167  00000+0  13670-2 0  9996,2 45189  53.1581   3.6599 0001839 156.0662 204.0426 15.34448229345205
